[
    {
        "Altitude(m)": 610399.5233819102,
        "Argument of Periapsis(deg)": 0.0,
        "Eccentricity": 0.0,
        "Inclination(deg)": 60.0,
        "Latitude(deg)": 52.11131989181475,
        "Longitude(deg)": -17.415831372974225,
        "Mean Anomaly(deg)": 65.4545,
        "RAAN(deg)": 35.0,
        "Satellite Name": "Test1 158",
        "Satellite Number": 158,
        "Semi-Major Axis(m)": 6980739.136638005,
        "Time(s)": 0
    },
    {
        "Altitude(m)": 610481.6750151505,
        "Argument of Periapsis(deg)": 0.00010418945913296404,
        "Eccentricity": 0.0,
        "Inclination(deg)": 60.0,
        "Latitude(deg)": 52.47092361205318,
        "Longitude(deg)": -16.633697197447493,
        "Mean Anomaly(deg)": 66.07460614546183,
        "RAAN(deg)": 34.99957995086025,
        "Satellite Name": "Test1 158",
        "Satellite Number": 158,
        "Semi-Major Axis(m)": 6980739.136638005,
        "Time(s)": 10
    }
]